{
  "norad_id": 66305,
  "name": "BANDWAGON-4 OBJECT N",
  "history": [
    {
      "epoch": "2026-03-28T08:36:24.149376",
      "apogee_km": 500.5668020713929,
      "perigee_km": 480.19477830569394,
      "latitude_deg": 28.00330570409729,
      "longitude_deg": 124.92683263984509,
      "semi_major_axis_km": 6868.517790188544,
      "eccentricity": 0.001483,
      "inclination_deg": 45.4129,
      "raan_deg": 190.6661,
      "arg_perigee_deg": 309.9381,
      "mean_anomaly_deg": 50.0204,
      "mean_motion_rev_day": 15.25134765
    }
  ]
}